{
  "norad_id": 65896,
  "name": "STARLINK-34906",
  "history": [
    {
      "epoch": "2026-03-28T19:51:13.149792Z",
      "apogee_km": 475.7837496266293,
      "perigee_km": 474.6052507418581,
      "latitude_deg": 5.7893447941392627e-05,
      "longitude_deg": 158.45465589354674,
      "height_km": 476.01247307872256,
      "semi_major_axis_km": 6853.331500184244,
      "eccentricity": 8.598e-05,
      "inclination_deg": 53.1581,
      "raan_deg": 282.5015,
      "arg_perigee_deg": 82.1524,
      "mean_anomaly_deg": 277.9575,
      "mean_motion_rev_day": 15.30206889
    }
  ]
}